[{"OBJECT_NAME":"STARLINK-32864","OBJECT_ID":"2025-022J","EPOCH":"2026-03-09T10:40:42.832416","MEAN_MOTION":15.3019107,"ECCENTRICITY":0.00011983,"INCLINATION":53.1579,"RA_OF_ASC_NODE":130.6677,"ARG_OF_PERICENTER":89.2302,"MEAN_ANOMALY":270.8836,"EPHEMERIS_TYPE":0,"CLASSIFICATION_TYPE":"U","NORAD_CAT_ID":62862,"ELEMENT_SET_NO":999,"REV_AT_EPOCH":6186,"BSTAR":0.00069736046,"MEAN_MOTION_DOT":0.00020346,"MEAN_MOTION_DDOT":0},{"OBJECT_NAME":"CZ-4C DEB","OBJECT_ID":"2015-069C","EPOCH":"2026-03-07T10:00:21.558816","MEAN_MOTION":15.31048021,"ECCENTRICITY":0.00583916,"INCLINATION":97.4862,"RA_OF_ASC_NODE":135.8649,"ARG_OF_PERICENTER":162.5456,"MEAN_ANOMALY":197.781,"EPHEMERIS_TYPE":0,"CLASSIFICATION_TYPE":"U","NORAD_CAT_ID":42670,"ELEMENT_SET_NO":999,"REV_AT_EPOCH":51749,"BSTAR":0.00045809658,"MEAN_MOTION_DOT":0.00014416,"MEAN_MOTION_DDOT":0}]
